SCD 1                   
1 22490U 93009B   19070.27374655  .00000223  00000-0  11070-4 0  9994
2 22490  24.9710  11.1198 0043112 167.4103 348.8762 14.44544653376819
TECHSAT 1B (GO-32)      
1 25397U 98043D   19070.38266176 -.00000002  00000-0  18298-4 0  9991
2 25397  98.6799  11.7805 0001171  19.2287 340.8935 14.23661466 73525
SCD 2                   
1 25504U 98060A   19070.63418427  .00000224  00000-0  12141-4 0  9992
2 25504  24.9946 216.0278 0017121 196.1043 259.2283 14.44062603 76200
LANDSAT 7               
1 25682U 99020A   19070.77154757  .00000036  00000-0  17870-4 0  9999
2 25682  98.1376 140.4899 0001328  87.6235 272.5114 14.57146773 58717
DLR-TUBSAT              
1 25757U 99029B   19070.75169659 -.00000018  00000-0  69944-5 0  9997
2 25757  98.4118 352.7488 0014834 161.2979 198.8764 14.51398572 48236
TERRA                   
1 25994U 99068A   19070.30796289 -.00000106  00000-0 -13415-4 0  9999
2 25994  98.2100 146.2840 0001266  66.7751 293.3550 14.57107229 22721
MAROC-TUBSAT            
1 27004U 01056D   19070.60736503 -.00000031  00000-0  14319-4 0  9999
2 27004  99.4458 205.9588 0020494 134.5423 288.4193 13.70133483862657
AQUA                    
1 27424U 02022A   19070.82366795  .00000037  00000-0  18193-4 0  9994
2 27424  98.2171  13.1626 0001960  17.9220  63.5589 14.57101868896409
IRS-P6 (RESOURCESAT-1)  
1 28051U 03046A   19070.75318167 -.00000006  00000-0  13281-4 0  9990
2 28051  98.5261 149.8096 0057056 322.9089  36.8158 14.34164515799923
SHIYAN 1 (SY-1)         
1 28220U 04012A   19070.83823095  .00000981  00000-0  84223-4 0  9997
2 28220  97.7851  32.9873 0013363 155.7414 204.4440 14.99752003811231
FORMOSAT-2 (ROCSAT 2)   
1 28254U 04018A   19060.84042214  .00000282  00000-0  21777-3 0  9994
2 28254  98.7729 109.4710 0000998 201.0259 159.3037 14.00644976755750
AURA                    
1 28376U 04026A   19070.53906504  .00000051  00000-0  21306-4 0  9999
2 28376  98.2186  15.0432 0001008  66.9900 293.1405 14.57100657779368
IRS-P5 (CARTOSAT-1)     
1 28649U 05017A   19070.77414564  .00000066  00000-0  14444-4 0  9990
2 28649  97.8652 143.0235 0002541 119.3097 240.8377 14.83620799749761
SINAH 1                 
1 28893U 05043D   19070.56881449 -.00000002  00000-0  87436-5 0  9990
2 28893  97.9562 211.5864 0014358 325.3914  34.6352 14.61497563712565
EROS B                  
1 29079U 06014A   19070.82251527  .00001573  00000-0  68737-4 0  9998
2 29079  97.4077 190.7971 0004654 108.4651  42.7018 15.23559679714647
RESURS-DK 1             
1 29228U 06021A   19070.78307941  .00000032  00000-0  97745-5 0  9990
2 29228  69.9345 288.2660 0001549  99.5852 260.5484 15.02412258703100
ARIRANG-2 (KOMPSAT-2)   
1 29268U 06031A   19070.76118534  .00000066  00000-0  22250-4 0  9996
2 29268  98.0425 325.6169 0017973 172.8283 187.3184 14.62413791673441
LAPAN-TUBSAT            
1 29709U 07001A   19070.71733177 -.00000013  00000-0  49148-5 0  9994
2 29709  97.7950  35.4444 0012456 178.5105 181.6150 14.82163664657679
CARTOSAT-2 (IRS-P7)     
1 29710U 07001B   19070.82120177  .00000148  00000-0  27328-4 0  9991
2 29710  97.9859 130.7166 0001446  91.7588 268.3763 14.78652165656686
HAIYANG-1B              
1 31113U 07010A   19070.79347479 -.00000027  00000-0  59150-5 0  9999
2 31113  98.4685 122.3193 0014737 138.4079 221.8228 14.30216234621893
COSMO-SKYMED 1          
1 31598U 07023A   19070.81525398  .00000330  00000-0  48017-4 0  9996
2 31598  97.8883 255.5785 0001639  84.0972 276.0435 14.82152408636150
TERRASAR-X              
1 31698U 07026A   19070.78431292 -.00001606  00000-0 -73339-4 0  9999
2 31698  97.4457  79.4053 0001946  78.1105  21.6576 15.19141537650910
WORLDVIEW-1 (WV-1)      
1 32060U 07041A   19070.30747461  .00000635  00000-0  28733-4 0  9993
2 32060  97.3872 191.2778 0002065  87.3932 324.7102 15.24461814638551
YAOGAN 3                
1 32289U 07055A   19070.81410683  .00000212  00000-0  34281-4 0  9996
2 32289  98.0060  81.6494 0001888  85.2264 274.9154 14.80945739612363
COSMO-SKYMED 2          
1 32376U 07059A   19070.78148008 -.00000304  00000-0 -31617-4 0  9996
2 32376  97.8882 255.5458 0001676  92.2658 267.8743 14.82155785608895
RADARSAT-2              
1 32382U 07061A   19070.85326263 -.00000011  00000-0  12687-4 0  9995
2 32382  98.5776  79.2038 0001376  94.6106   1.4598 14.29984857586715
CARTOSAT-2A             
1 32783U 08021A   19070.79970586  .00000158  00000-0  28690-4 0  9995
2 32783  97.9848 131.0708 0014519  70.1493 290.1273 14.78655800586629
JASON-2 (OSTM)          
1 33105U 08032A   19070.63667337 -.00000030  00000-0  12901-3 0  9993
2 33105  66.0391 232.3966 0007679 273.8251 191.9108 12.87629705501953
RAPIDEYE 2              
1 33312U 08040A   19070.73382120  .00001681  00000-0  22689-3 0  9993
2 33312  97.7561 142.7630 0013084  86.8837 273.3786 14.80308523568928
RAPIDEYE 5              
1 33313U 08040B   19070.75728088  .00001943  00000-0  26102-3 0  9998
2 33313  97.7645 141.5404 0017399 333.9612  26.0663 14.80310730568872
RAPIDEYE 1              
1 33314U 08040C   19070.74551043  .00000016  00000-0  87589-5 0  9991
2 33314  97.7567 142.5240 0024260 102.8491 257.5428 14.80296881568913
RAPIDEYE 3              
1 33315U 08040D   19070.78177065  .00002614  00000-0  34914-3 0  9992
2 33315  97.7669 141.4418 0014348  40.5412 319.6725 14.80308593568889
RAPIDEYE 4              
1 33316U 08040E   19070.76948701  .00001791  00000-0  24148-3 0  9997
2 33316  97.7695 141.2490 0013024 353.5600   6.5383 14.80305384568879
HUANJING 1A (HJ-1A)     
1 33320U 08041A   19070.76281512  .00000089  00000-0  19725-4 0  9998
2 33320  97.8516 131.9039 0026615 139.0871 221.2339 14.77000598566150
HUANJING 1B (HJ-1B)     
1 33321U 08041B   19070.79874930  .00000078  00000-0  18179-4 0  9994
2 33321  97.8588 133.7094 0035245 156.4208 203.8624 14.77105199566153
GEOEYE 1                
1 33331U 08042A   19070.63906897  .00000092  00000-0  26443-4 0  9996
2 33331  98.1041 146.7361 0010661  75.0668 285.1734 14.64309325561652
THEOS                   
1 33396U 08049A   19070.82826804  .00000169  00000-0  10000-3 0  9990
2 33396  98.6960 139.6031 0001418  95.9259 328.7652 14.20045146541268
COSMO-SKYMED 3          
1 33412U 08054A   19070.76881447  .00000067  00000-0  14924-4 0  9999
2 33412  97.8885 255.5337 0001564  92.3707 267.7675 14.82151014561351
YAOGAN 4                
1 33446U 08061A   19070.48068646  .00000066  00000-0  16164-4 0  9998
2 33446  97.6628  42.5258 0017340  49.8313 310.4413 14.76932203553342
GOSAT (IBUKI)           
1 33492U 09002A   19070.75788769  .00000066  00000-0  19926-4 0  9999
2 33492  98.0229 185.0543 0001662  98.6077 261.5316 14.67572085542607
YAOGAN 6                
1 34839U 09021A   19070.80776518  .00000340  00000-0  15547-4 0  9991
2 34839  97.0649 100.0859 0026754 230.2260 129.6623 15.26465220549073
DEIMOS-1                
1 35681U 09041A   19070.83545419 -.00000089  00000-0 -65939-5 0  9999
2 35681  97.8773 315.9393 0003341 101.9515 258.2072 14.71773807516195
DUBAISAT-1              
1 35682U 09041B   19070.47296496  .00000306  00000-0  60255-4 0  9993
2 35682  97.7322 269.1948 0010590 296.1022  63.9126 14.68721183515012
OCEANSAT-2              
1 35931U 09051A   19070.51420582  .00000042  00000-0  21872-4 0  9990
2 35931  98.2983 166.9805 0002760  65.5855 294.5627 14.50859477501041
WORLDVIEW-2 (WV-2)      
1 35946U 09055A   19070.19238052  .00000000  00000-0  14554-4 0  9996
2 35946  98.4427 147.6863 0001126 347.0317  13.0824 14.37609565494318
SMOS                    
1 36036U 09059A   19070.50229577  .00000036  00000-0  25400-4 0  9999
2 36036  98.4440 259.1719 0001074  99.8288 260.3021 14.39765277491468
YAOGAN 7                
1 36110U 09069A   19070.79069497  .00000011  00000-0  97318-5 0  9998
2 36110  98.2660 251.4643 0022790 254.8036 105.0653 14.75183618498147
TANDEM-X                
1 36605U 10030A   19070.53311571 -.00001739  00000-0 -79673-4 0  9995
2 36605  97.4465  79.1609 0001794  82.4701  84.4058 15.19143209483618
CARTOSAT-2B             
1 36795U 10035A   19070.76868075  .00000032  00000-0  11460-4 0  9994
2 36795  97.9836 130.7120 0015768 138.2781 221.9622 14.78658667467666
YAOGAN 10               
1 36834U 10038A   19070.85013774  .00000040  00000-0  12036-4 0  9998
2 36834  97.9650  71.7818 0001777  79.8191 280.3219 14.80903667464116
COSMO-SKYMED 4          
1 37216U 10060A   19070.73086179  .00000000  00000-0  66059-5 0  9995
2 37216  97.8880 255.4954 0001611  87.1391 273.0004 14.82149559451434
RESOURCESAT-2           
1 37387U 11015A   19070.96445731 -.00008421  00000-0 -38230-2 0  9997
2 37387  98.7198 147.2524 0001674 275.8982  84.6524 14.21637095409589
HAIYANG 2A              
1 37781U 11043A   19070.81631869 -.00000239  00000-0 -19241-3 0  9990
2 37781  99.3227  81.4596 0001933 102.1752 257.9633 13.78716817381159
RASAT                   
1 37791U 11044D   19070.80507941  .00000057  00000-0  19790-4 0  9990
2 37791  98.1173 164.9979 0020601 292.0248  67.8764 14.64707476404371
MEGHA-TROPIQUES         
1 37838U 11058A   19069.94088741  .00000338  00000-0  41667-4 0  9992
2 37838  19.9778 294.6337 0009573 150.2068 209.8882 14.09695121382358
SRMSAT                  
1 37841U 11058D   19070.60576337  .00000316  00000-0  28335-4 0  9997
2 37841  19.9716 270.3716 0011863 188.1286 209.4298 14.10626121382592
YAOGAN 13               
1 37941U 11072A   19070.82235292  .00000499  00000-0  27948-4 0  9991
2 37941  97.5220   3.2203 0001009 155.6816 279.6709 15.17891777403632
PLEIADES 1A             
1 38012U 11076F   19070.78093338 -.00000018  00000-0  58982-5 0  9994
2 38012  98.1713 146.7735 0001728  87.7103 272.4291 14.58566274385070
ZIYUAN 1-02C (ZY 1-02C) 
1 38038U 11079A   19070.76707953  .00000054  00000-0  33065-4 0  9991
2 38038  98.2547 120.8995 0001837  73.9385 286.1995 14.35492955378259
